<?xml version="1.0" encoding="UTF-8"?>
<kml xmlns="http://www.opengis.net/kml/2.2" xmlns:gx="http://www.google.com/kml/ext/2.2" xmlns:kml="http://www.opengis.net/kml/2.2" xmlns:atom="http://www.w3.org/2005/Atom">
<Document>
	<name>DrawnArea</name>
	<open>1</open>
	<atom:link rel="app" href="https://www.google.com/earth/about/versions/#earth-pro" title="Google Earth Pro 7.3.7.1155"></atom:link>
	<Folder>
		<name>Operational Volumes</name>
		<open>1</open>
		<Placemark>
			<name>Area_1</name>
			<snippet></snippet>
			<description><![CDATA[<b>Layer type:</b> original<br/>
        <b>Area:</b> 0.259 km&sup2;<br/>
        <b>Total population (est.):</b> 373<br/>
        <b>Peak density:</b> 53 people/km&sup2;<br/>
        <b>Mean density:</b> 53 people/km&sup2;<br/>
        <b>Source:</b> ABS Australian Population Grid 2024 (live)<br/>]]></description>
			<Style>
				<IconStyle>
					<scale>0.8</scale>
					<Icon>
						<href>http://maps.google.com/mapfiles/kml/shapes/placemark_circle.png</href>
					</Icon>
				</IconStyle>
				<LabelStyle>
					<color>ffffffff</color>
					<scale>0.9</scale>
				</LabelStyle>
				<LineStyle>
					<color>ff5ec522</color>
					<width>2</width>
				</LineStyle>
				<PolyStyle>
					<color>805ec522</color>
				</PolyStyle>
			</Style>
			<gx:balloonVisibility>1</gx:balloonVisibility>
			<MultiGeometry>
				<Polygon>
					<outerBoundaryIs>
						<LinearRing>
							<coordinates>
								151.205545,-33.70505,0 151.205971,-33.7048,0 151.206773,-33.704695,0 151.207181,-33.704791,0 151.207583,-33.705151,0 151.20809,-33.705532,0 151.208809,-33.705773,0 151.209919,-33.706083,0 151.209769,-33.711596,0 151.205274,-33.709481,0 151.20477,-33.706353,0 151.205545,-33.70505,0 
							</coordinates>
						</LinearRing>
					</outerBoundaryIs>
				</Polygon>
				<Polygon>
					<outerBoundaryIs>
						<LinearRing>
							<coordinates>
								151.2023426652501,-33.70622288863697,0 151.2023591810494,-33.70662178668837,0 151.2028630948205,-33.70974979647614,0 151.2029633272326,-33.7101132628389,0 151.203142039081,-33.71045525612632,0 151.2033931614714,-33.7107641608473,0 151.2037081658913,-33.7110294852159,0 151.2040763538121,-33.71124221754052,0 151.2085714165044,-33.71335726091623,0 151.2089871722071,-33.71351211046083,0 151.2094303462893,-33.713599765843,0 151.2098853968538,-33.71361715301986,0 151.2103363654136,-33.71356366222827,0 151.2107674366661,-33.71344116937338,0 151.2111634932407,-33.71325397022787,0 151.2115106459462,-33.71300862975156,0 151.2117967209058,-33.71271375182101,0 151.2120116864867,-33.71237967745164,0 151.2121480050492,-33.71201812210379,0 151.2122008971858,-33.71164176480001,0 151.2123507411625,-33.70612876186589,0 151.2123080559782,-33.7057028919619,0 151.2121588119189,-33.70529397713699,0 151.211909667111,-33.70492025605851,0 151.2115717351261,-33.70459839743648,0 151.2111600891283,-33.70434275663952,0 151.2106930895206,-33.70416473551051,0 151.2096512912249,-33.70387378391613,0 151.2093997926744,-33.70378948542756,0 151.2092925034275,-33.70370886065577,0 151.2089630205319,-33.70341380650886,0 151.2086335833932,-33.70316799694541,0 151.2082560653209,-33.70297591153768,0 151.2078429625092,-33.70284390834758,0 151.2074349710178,-33.70274791052376,0 151.2069182890068,-33.70267514234822,0 151.2063948632954,-33.70269613174631,0 151.2055928814962,-33.70280112930293,0 151.2050570220444,-33.70292482090282,0 151.2045689370024,-33.7031465340858,0 151.2041429411223,-33.70339652927328,0 151.2038343927222,-33.70361149674802,0 151.2035726758921,-33.70386584798104,0 151.203364956171,-33.70415261952717,0 151.2025899311973,-33.70545560591287,0 151.2024205930609,-33.70582905392581,0 151.2023426652501,-33.70622288863697,0 
							</coordinates>
						</LinearRing>
					</outerBoundaryIs>
					<innerBoundaryIs>
						<LinearRing>
							<coordinates>
								151.20477,-33.706353,0 151.205545,-33.70505,0 151.205971,-33.7048,0 151.206773,-33.704695,0 151.207181,-33.704791,0 151.207583,-33.705151,0 151.20809,-33.705532,0 151.208809,-33.705773,0 151.209919,-33.706083,0 151.209769,-33.711596,0 151.205274,-33.709481,0 151.20477,-33.706353,0 
							</coordinates>
						</LinearRing>
					</innerBoundaryIs>
				</Polygon>
				<Polygon>
					<outerBoundaryIs>
						<LinearRing>
							<coordinates>
								151.2010461713194,-33.70626003040817,0 151.2010626811044,-33.70665892863188,0 151.2010734047729,-33.70676512044003,0 151.2015772725543,-33.70989313544676,0 151.2015986200562,-33.70999108662305,0 151.2016988473983,-33.71035455400684,0 151.2017735478693,-33.71054348111884,0 151.2019522558748,-33.71088547611935,0 151.2020673664207,-33.71105979161614,0 151.2023184867131,-33.71136869851156,0 151.2024700982835,-33.71152248178495,0 151.202785102633,-33.7117878084964,0 151.2029680661916,-33.7119158362278,0 151.203336256079,-33.71212857074806,0 151.2034375890914,-33.71218152883602,0 151.2079326852201,-33.7142965953465,0 151.2080412249777,-33.71434221622612,0 151.2084569844932,-33.71449706754677,0 151.2086870455882,-33.71456202166592,0 151.2091302247826,-33.71464967811973,0 151.2093708112708,-33.71467781342733,0 151.2098258675362,-33.7146952008224,0 151.2100685418304,-33.71468553058554,0 151.2105195158871,-33.71463203912838,0 151.2107557671556,-33.71458490249211,0 151.2111868429364,-33.7144624081804,0 151.21140838568,-33.71437945826981,0 151.2118044451848,-33.71419225707885,0 151.2120035099004,-33.71407640300448,0 151.2123506635305,-33.7138310601785,0 151.2125202692499,-33.71368636498242,0 151.2128063430001,-33.71339148472472,0 151.2129405421369,-33.71322302285122,0 151.2131555045426,-33.7128889465008,0 151.2132495914549,-33.71270262579675,0 151.213385905318,-33.7123410690894,0 151.2134365812726,-33.71214342358368,0 151.2134894678391,-33.71176706573096,0 151.2134979100777,-33.71166615320874,0 151.2136476708416,-33.70615314871195,0 151.2136435143417,-33.70603908208146,0 151.2136008227922,-33.70561321262235,0 151.2135493505792,-33.70538935228753,0 151.2134001011553,-33.70498043895553,0 151.2132932643239,-33.70477056368073,0 151.2130441160985,-33.70439684487978,0 151.2128866808515,-33.70421031544863,0 151.2125487479989,-33.70388845948696,0 151.2123477369423,-33.70373359525654,0 151.2119360927797,-33.70347795703343,0 151.211700471611,-33.70336166495104,0 151.2112334762174,-33.70318364585532,0 151.2111059231286,-33.70314165914223,0 151.2101232734245,-33.70286722711757,0 151.2099134081174,-33.70267929285149,0 151.2098291493075,-33.70261041321885,0 151.2094997127715,-33.70236460595451,0 151.2093104073221,-33.70224734898053,0 151.2089328917825,-33.70205526563159,0 151.2087211835747,-33.70196848317391,0 151.2083080848931,-33.70183648153199,0 151.2081959969101,-33.70180545802264,0 151.2077880099565,-33.7017094613594,0 151.2076514895593,-33.70168386510821,0 151.207134813765,-33.7016110978341,0 151.206855831821,-33.70159720951945,0 151.2063324126626,-33.70161819865417,0 151.2061931975818,-33.70163006820663,0 151.2053912254892,-33.70173506446019,0 151.2052460578145,-33.70176123155092,0 151.2047102043503,-33.70188492165342,0 151.2044353533958,-33.70197763629314,0 151.2039472721314,-33.7021993470313,0 151.2038211921406,-33.70226467912214,0 151.2033951984578,-33.70251467174303,0 151.2033100641466,-33.70256915959085,0 151.2030015166342,-33.70278412499496,0 151.2028489228151,-33.70290970602345,0 151.2025872052054,-33.7031640551783,0 151.2024615906288,-33.70330884988545,0 151.2022538685453,-33.70359561957185,0 151.2022022847543,-33.70367400095084,0 151.2014272464625,-33.70497698007538,0 151.2013761710712,-33.70507470873702,0 151.2012068284085,-33.70544815509367,0 151.2011405649002,-33.7056537655773,0 151.2010626313793,-33.70604759948451,0 151.2010461713194,-33.70626003040817,0 
							</coordinates>
						</LinearRing>
					</outerBoundaryIs>
					<innerBoundaryIs>
						<LinearRing>
							<coordinates>
								151.2023426652501,-33.70622288863697,0 151.2024205930609,-33.70582905392581,0 151.2025899311973,-33.70545560591287,0 151.203364956171,-33.70415261952717,0 151.2035726758921,-33.70386584798104,0 151.2038343927222,-33.70361149674802,0 151.2041429411223,-33.70339652927328,0 151.2045689370024,-33.7031465340858,0 151.2050570220444,-33.70292482090282,0 151.2055928814962,-33.70280112930293,0 151.2063948632954,-33.70269613174631,0 151.2069182890068,-33.70267514234822,0 151.2074349710178,-33.70274791052376,0 151.2078429625092,-33.70284390834758,0 151.2082560653209,-33.70297591153768,0 151.2086335833932,-33.70316799694541,0 151.2089630205319,-33.70341380650886,0 151.2092925034275,-33.70370886065577,0 151.2093997926744,-33.70378948542756,0 151.2096512912249,-33.70387378391613,0 151.2106930895206,-33.70416473551051,0 151.2111600891283,-33.70434275663952,0 151.2115717351261,-33.70459839743648,0 151.211909667111,-33.70492025605851,0 151.2121588119189,-33.70529397713699,0 151.2123080559782,-33.7057028919619,0 151.2123507411625,-33.70612876186589,0 151.2122008971858,-33.71164176480001,0 151.2121480050492,-33.71201812210379,0 151.2120116864867,-33.71237967745164,0 151.2117967209058,-33.71271375182101,0 151.2115106459462,-33.71300862975156,0 151.2111634932407,-33.71325397022787,0 151.2107674366661,-33.71344116937338,0 151.2103363654136,-33.71356366222827,0 151.2098853968538,-33.71361715301986,0 151.2094303462893,-33.713599765843,0 151.2089871722071,-33.71351211046083,0 151.2085714165044,-33.71335726091623,0 151.2040763538121,-33.71124221754052,0 151.2037081658913,-33.7110294852159,0 151.2033931614714,-33.7107641608473,0 151.203142039081,-33.71045525612632,0 151.2029633272326,-33.7101132628389,0 151.2028630948205,-33.70974979647614,0 151.2023591810494,-33.70662178668837,0 151.2023426652501,-33.70622288863697,0 
							</coordinates>
						</LinearRing>
					</innerBoundaryIs>
				</Polygon>
			</MultiGeometry>
		</Placemark>
	</Folder>
</Document>
</kml>
