<?xml version="1.0" encoding="UTF-8"?>
<kml xmlns="http://www.opengis.net/kml/2.2">
  <Document>
    <name>DrawnArea</name>
    <Folder>
      <name>Operational Volumes</name>
      
    <Placemark>
      <name>Area_1</name>
      <Style>
        <IconStyle>
          <scale>0.8</scale>
          <Icon><href>http://maps.google.com/mapfiles/kml/shapes/placemark_circle.png</href></Icon>
        </IconStyle>
        <LabelStyle>
          <color>ffffffff</color>
          <scale>0.9</scale>
        </LabelStyle>
        <LineStyle><color>ff5ec522</color><width>2</width></LineStyle>
        <PolyStyle><color>805ec522</color></PolyStyle>
      </Style>
      <Polygon><outerBoundaryIs><LinearRing><coordinates>151.20724,-33.704829,0 151.206762,-33.704688,0 151.206167,-33.704753,0 151.205429,-33.705083,0 151.203718,-33.706937,0 151.201787,-33.708455,0 151.193553,-33.710253,0 151.194406,-33.711882,0 151.194534,-33.714202,0 151.188226,-33.716487,0 151.190457,-33.720877,0 151.198397,-33.72541,0 151.203246,-33.720128,0 151.202774,-33.716415,0 151.203418,-33.712881,0 151.205306,-33.710846,0 151.207237,-33.710525,0 151.208975,-33.710829,0 151.210327,-33.711971,0 151.212795,-33.711096,0 151.210928,-33.707544,0 151.210241,-33.706277,0 151.207961,-33.706085,0 151.207849,-33.705333,0 151.20724,-33.704829,0</coordinates></LinearRing></outerBoundaryIs></Polygon>
    </Placemark>

    <Placemark>
      <name>Area_1_GRB_500m</name>
      <Style>
        <IconStyle>
          <scale>0.8</scale>
          <Icon><href>http://maps.google.com/mapfiles/kml/shapes/placemark_circle.png</href></Icon>
        </IconStyle>
        <LabelStyle>
          <color>ffffffff</color>
          <scale>0.9</scale>
        </LabelStyle>
        <LineStyle><color>ff4444ef</color><width>2</width></LineStyle>
        <PolyStyle><color>804444ef</color></PolyStyle>
      </Style>
      <Polygon><outerBoundaryIs><LinearRing><coordinates>151.18839118537034,-33.71152274558607,0 151.18606785401585,-33.71236428638032,0 151.18514839051986,-33.71279026348515,0 151.18434557174336,-33.713356364203236,0 151.1836898282553,-33.71404113249704,0 151.18320601798717,-33.71481861409619,0 151.18291248376386,-33.71565933994295,0 151.1828203574685,-33.71653144292958,0 151.18293313729737,-33.71740186564383,0 151.18324655424675,-33.71823761337317,0 151.18547734508573,-33.72262770287314,0 151.18596373871765,-33.723377516642266,0 151.18661145501832,-33.72403756177338,0 151.1873972420169,-33.72458414023317,0 151.19533742333357,-33.72911733600416,0 151.19623445619393,-33.72953123811014,0 151.1972093500342,-33.72979677244845,0 151.19822700482948,-33.72990437858452,0 151.1992507802691,-33.72985018218679,0 151.20024381556823,-33.729636134584474,0 151.20117035723612,-33.729269942478226,0 151.20199704688602,-33.72876479034036,0 151.20269412262604,-33.72813886552132,0 151.20754301234652,-33.72285669762294,0 151.20808371432648,-33.722135170643355,0 151.2084514545998,-33.721341888367235,0 151.2086330905298,-33.72050521244787,0 151.2086221338701,-33.719655055118594,0 151.2082230345001,-33.71651709662567,0 151.20829295617344,-33.71613327397085,0 151.20927908527835,-33.71638230523086,0 151.21034991833343,-33.71646756139152,0 151.21141984373767,-33.71637475560583,0 151.2124464886602,-33.716107563317756,0 151.21491458594863,-33.71523252115657,0 151.21584920610036,-33.71480610782058,0 151.21666505041145,-33.714235424826185,0 151.2173303942565,-33.713542665399345,0 151.2178193676238,-33.71275476959522,0 151.218112960835,-33.71190237635356,0 151.21819976315155,-33.71101863179118,0 151.21807640563765,-33.710137900121794,0 151.2177476911867,-33.709294427361584,0 151.21588052553145,-33.705742501891294,0 151.21585515824154,-33.7056949932617,0 151.21516810035283,-33.70442802054476,0 151.21459896566796,-33.70361696860024,0 151.2138397519103,-33.70292194816517,0 151.21292357705715,-33.702373273213865,0 151.21189040267336,-33.701994874211884,0 151.2113704909337,-33.701904726092074,0 151.21105194365853,-33.70164110933238,0 151.2101191415897,-33.70102343946423,0 151.209046277124,-33.70059091744112,0 151.20856829774434,-33.70044992439787,0 151.207328953858,-33.700216204059046,0 151.20605827336107,-33.70022967359369,0 151.20546330371096,-33.70029467021856,0 151.2045084881553,-33.700473317807614,0 151.20360804113133,-33.70079227403113,0 151.2028700653295,-33.70112225881216,0 151.201927943161,-33.70165719158253,0 151.20114172342957,-33.70234469008613,0 151.19969276649118,-33.703914668086064,0 151.19907849636132,-33.704397547201076,0 151.19218083601586,-33.705903692718955,0 151.19121005288585,-33.70620075624751,0 151.19032505800217,-33.70664620942596,0 151.18955825773617,-33.707223741625434,0 151.18893773223041,-33.70791220566373,0 151.1884862071701,-33.70868639187742,0 151.18822022131602,-33.709517950977094,0 151.18814952031923,-33.71037643193916,0 151.18827669909228,-33.7112303969665,0 151.18839118537034,-33.71152274558607,0</coordinates></LinearRing></outerBoundaryIs><innerBoundaryIs><LinearRing><coordinates>151.20724,-33.704829,0 151.206762,-33.704688,0 151.206167,-33.704753,0 151.205429,-33.705083,0 151.203718,-33.706937,0 151.201787,-33.708455,0 151.193553,-33.710253,0 151.194406,-33.711882,0 151.194534,-33.714202,0 151.188226,-33.716487,0 151.190457,-33.720877,0 151.198397,-33.72541,0 151.203246,-33.720128,0 151.202774,-33.716415,0 151.203418,-33.712881,0 151.205306,-33.710846,0 151.207237,-33.710525,0 151.208975,-33.710829,0 151.210327,-33.711971,0 151.212795,-33.711096,0 151.210928,-33.707544,0 151.210241,-33.706277,0 151.207961,-33.706085,0 151.207849,-33.705333,0 151.20724,-33.704829,0</coordinates></LinearRing></innerBoundaryIs></Polygon>
    </Placemark>
    </Folder>
  </Document>
</kml>