<?xml version="1.0" encoding="UTF-8"?>
<kml xmlns="http://www.opengis.net/kml/2.2" xmlns:gx="http://www.google.com/kml/ext/2.2" xmlns:kml="http://www.opengis.net/kml/2.2" xmlns:atom="http://www.w3.org/2005/Atom">
<Document>
	<name>Scenario 6 - Scan area</name>
	<open>1</open>
	<atom:link rel="app" href="https://www.google.com/earth/about/versions/#earth-pro" title="Google Earth Pro 7.3.7.1155"></atom:link>
	<Folder>
		<name>Operational Volumes</name>
		<open>1</open>
		<Placemark>
			<name>Scenario 6 - Scan area</name>
			<snippet></snippet>
			<description><![CDATA[<b>Layer type:</b> original<br/>
        <b>Area:</b> 69.319 km&sup2;<br/>
        <b>Total population (est.):</b> 0<br/>
        <b>Peak density:</b> 0 people/km&sup2;<br/>
        <b>Mean density:</b> 0 people/km&sup2;<br/>
        <b>Source:</b> ABS Australian Population Grid 2024 (offline)<br/>]]></description>
			<Style>
				<IconStyle>
					<scale>0.8</scale>
					<Icon>
						<href>http://maps.google.com/mapfiles/kml/shapes/placemark_circle.png</href>
					</Icon>
				</IconStyle>
				<LabelStyle>
					<color>ffffffff</color>
					<scale>0.9</scale>
				</LabelStyle>
				<LineStyle>
					<color>ff5ec522</color>
					<width>2</width>
				</LineStyle>
				<PolyStyle>
					<color>805ec522</color>
				</PolyStyle>
			</Style>
			<MultiGeometry>
				<Polygon>
					<outerBoundaryIs>
						<LinearRing>
							<coordinates>
								153.0172971045503,-29.66280033877364,0 153.0585601502364,-29.62956012304646,0 153.0627401065069,-29.59188518319187,0 153.0909316423291,-29.57974091389545,0 153.1377671945737,-29.57495470452282,0 153.1282244195326,-29.5468822874809,0 153.0918107037558,-29.54934987182603,0 153.0505727215515,-29.56195958538764,0 153.0318924325521,-29.56763334101786,0 153.0204669432565,-29.59466163924098,0 153.0135416552843,-29.60803204780492,0 152.9837554386229,-29.62963251681465,0 153.0172971045503,-29.66280033877364,0 
							</coordinates>
						</LinearRing>
					</outerBoundaryIs>
				</Polygon>
				<Polygon>
					<outerBoundaryIs>
						<LinearRing>
							<coordinates>
								152.9818987253864,-29.62950733653085,0 152.9819070249431,-29.62982978121541,0 152.9819887008014,-29.63014439564244,0 152.9821405113308,-29.63043869053549,0 152.9823564306221,-29.63070098313985,0 153.0158979912553,-29.66386915684501,0 153.0161696766247,-29.66408901000348,0 153.0164861386705,-29.66425768405973,0 153.0168348090166,-29.66436847997592,0 153.0172018399404,-29.66441699737706,0 153.0175726544092,-29.66440130933945,0 153.017932525101,-29.66432203893134,0 153.0182671593991,-29.66418233446353,0 153.0185632671092,-29.66398774443393,0 153.0598263814768,-29.63074713703739,0 153.0600523437978,-29.63052865398473,0 153.0602291542299,-29.6302782690268,0 153.0603509891574,-29.63000422965138,0 153.0604138359223,-29.62971556243492,0 153.0644937662878,-29.59293641414113,0 153.0914689716595,-29.58131597490879,0 153.1379847838569,-29.57656238155668,0 153.1383361225008,-29.5764960060607,0 153.1386662328301,-29.57637212201105,0 153.1389627976149,-29.57619535186479,0 153.1392147514543,-29.57597229137639,0 153.1394126936733,-29.57571126346445,0 153.139549239071,-29.57542200763332,0 153.1396192934337,-29.57511531654353,0 153.1396202435391,-29.57480263329652,0 153.1395520545722,-29.57449562446401,0 153.1300088269494,-29.54642333534971,0 153.1298732468125,-29.54613201079037,0 153.1296755125949,-29.54586896940066,0 153.1294230784937,-29.54564412673252,0 153.129125460472,-29.54546595834648,0 153.128793877535,-29.54534118035232,0 153.128440828845,-29.54527449627252,0 153.1280796226086,-29.54526841976514,0 153.0916664850262,-29.5477359644431,0 153.0911933057414,-29.54782279513668,0 153.0499574609849,-29.56043183170545,0 153.0312790122677,-29.56610501779069,0 153.0309092809401,-29.56625885984746,0 153.0305872284974,-29.56647936064578,0 153.030328473591,-29.56675582675257,0 153.0301455654829,-29.56707485053716,0 153.0187424180843,-29.594049207193,0 153.0120199237502,-29.60702770834123,0 152.9825627096967,-29.62838932023348,0 152.9823028463895,-29.6286195336153,0 152.9821006444481,-29.62888995896896,0 152.9819641308997,-29.62918986158389,0 152.9818987253864,-29.62950733653085,0 
							</coordinates>
						</LinearRing>
					</outerBoundaryIs>
					<innerBoundaryIs>
						<LinearRing>
							<coordinates>
								152.9837554386229,-29.62963251681465,0 153.0135416552843,-29.60803204780492,0 153.0204669432565,-29.59466163924098,0 153.0318924325521,-29.56763334101786,0 153.0505727215515,-29.56195958538764,0 153.0918107037558,-29.54934987182603,0 153.1282244195326,-29.5468822874809,0 153.1377671945737,-29.57495470452282,0 153.0909316423291,-29.57974091389545,0 153.0627401065069,-29.59188518319187,0 153.0585601502364,-29.62956012304646,0 153.0172971045503,-29.66280033877364,0 152.9837554386229,-29.62963251681465,0 
							</coordinates>
						</LinearRing>
					</innerBoundaryIs>
				</Polygon>
				<Polygon>
					<outerBoundaryIs>
						<LinearRing>
							<coordinates>
								152.9806575099414,-29.62953147026219,0 152.980665805528,-29.62985391502152,0 152.980695944637,-29.63006732996459,0 152.9807776169052,-29.63038194513095,0 152.9808558326193,-29.63058593032273,0 152.981007640503,-29.63088022650343,0 152.9811308285403,-29.63106668420814,0 152.9813467465464,-29.63132897844606,0 152.981423742128,-29.63141328586174,0 153.014965232546,-29.66458169406732,0 153.0150515818342,-29.66465890947119,0 153.0153232674849,-29.66487876435369,0 153.0155202979009,-29.6650089223105,0 153.0158367617493,-29.66517759790799,0 153.0160595831341,-29.66527122142006,0 153.0164082565205,-29.66538201845227,0 153.0166480192018,-29.66543538906489,0 153.0170150539256,-29.66548390698127,0 153.0172622352206,-29.66549490495663,0 153.0176330536511,-29.66547921675245,0 153.0178778361603,-29.6654474052792,0 153.0182377103527,-29.6653681340489,0 153.0184703719726,-29.66529477659513,0 153.0188050087592,-29.66515507077886,0 153.0190163089052,-29.6650430808991,0 153.0193124177006,-29.66484848920685,0 153.0194073920708,-29.66477934153582,0 153.0606705522114,-29.63153847302041,0 153.0607496824695,-29.63146862159908,0 153.0609756444065,-29.63125013698239,0 153.0611104575076,-29.63109319912753,0 153.061287266301,-29.63084281276709,0 153.0613872256805,-29.63066727959144,0 153.0615090579287,-29.63039323915831,0 153.0615708714402,-29.63020489264973,0 153.0616337148355,-29.62991622485855,0 153.0616496295566,-29.62981917438295,0 153.0656628931143,-29.59363722196523,0 153.0918272005404,-29.58236601437964,0 153.1381298472527,-29.57763416604641,0 153.1382481927993,-29.57761697087016,0 153.13859953494,-29.5775505946783,0 153.1388277536006,-29.57748687629555,0 153.1391578665655,-29.57736299102765,0 153.1393677407853,-29.57726230129462,0 153.1396643069546,-29.57708552958793,0 153.139848005709,-29.57695162561443,0 153.1400999594773,-29.57672856345411,0 153.1402506286322,-29.57656644165377,0 153.1404485693349,-29.57630541220565,0 153.1405605873999,-29.5761211218295,0 153.1406971300603,-29.57583186482507,0 153.1407663179116,-29.57563228221234,0 153.1408363687208,-29.57532559048559,0 153.1408601454696,-29.57511816246194,0 153.1408610917309,-29.57480547920847,0 153.1408385709326,-29.57459794521188,0 153.1407703783993,-29.57429093700436,0 153.1407419522193,-29.57418955782934,0 153.1311984228875,-29.54611735400631,0 153.1311586593392,-29.54601833328961,0 153.1310230764317,-29.54572700990042,0 153.1309114428801,-29.54554134524819,0 153.1307137071176,-29.54527830539825,0 153.1305629383273,-29.54511490672023,0 153.1303105041376,-29.54489006573147,0 153.1301262837585,-29.54475509232428,0 153.1298286671179,-29.54457692550641,0 153.1296179395393,-29.54447546512286,0 153.1292863592468,-29.54435068835145,0 153.1290570678349,-29.54428656545532,0 153.1287040226578,-29.54421988207023,0 153.1284648103733,-29.54419551370549,0 153.1281036079935,-29.54418943726102,0 153.127983093916,-29.54419250786597,0 153.0915703417758,-29.54666002610059,0 153.0914104462709,-29.54668001681271,0 153.0909372717117,-29.54676684659697,0 153.0907817174437,-29.54680474242053,0 153.0495472976141,-29.55941332767502,0 153.0308700757215,-29.56508613407451,0 153.0307435773047,-29.56513149476249,0 153.0303738487275,-29.56528533533584,0 153.0301418447068,-29.56541087851427,0 153.0298197932941,-29.56563137746004,0 153.0296250064487,-29.56579804525532,0 153.0293662506546,-29.56607450949543,0 153.0292181277224,-29.56627421932089,0 153.0290352169791,-29.56659324158237,0 153.0289809981735,-29.56670251084384,0 153.017592746268,-29.59364090677894,0 153.0110054528967,-29.606358139061,0 152.9817675734157,-29.6275605165978,0 152.9816765443949,-29.62763349409258,0 152.9814166810152,-29.62786370574802,0 152.981261888674,-29.62803141845994,0 152.9810596851216,-29.62830184223468,0 152.9809462139379,-29.62849290101343,0 152.9808096974935,-29.62879280244513,0 152.9807420523454,-29.62899962316764,0 152.9806766431062,-29.62931709751307,0 152.9806575099414,-29.62953147026219,0 
							</coordinates>
						</LinearRing>
					</outerBoundaryIs>
					<innerBoundaryIs>
						<LinearRing>
							<coordinates>
								152.9818987253864,-29.62950733653085,0 152.9819641308997,-29.62918986158389,0 152.9821006444481,-29.62888995896896,0 152.9823028463895,-29.6286195336153,0 152.9825627096967,-29.62838932023348,0 153.0120199237502,-29.60702770834123,0 153.0187424180843,-29.594049207193,0 153.0301455654829,-29.56707485053716,0 153.030328473591,-29.56675582675257,0 153.0305872284974,-29.56647936064578,0 153.0309092809401,-29.56625885984746,0 153.0312790122677,-29.56610501779069,0 153.0499574609849,-29.56043183170545,0 153.0911933057414,-29.54782279513668,0 153.0916664850262,-29.5477359644431,0 153.1280796226086,-29.54526841976514,0 153.128440828845,-29.54527449627252,0 153.128793877535,-29.54534118035232,0 153.129125460472,-29.54546595834648,0 153.1294230784937,-29.54564412673252,0 153.1296755125949,-29.54586896940066,0 153.1298732468125,-29.54613201079037,0 153.1300088269494,-29.54642333534971,0 153.1395520545722,-29.57449562446401,0 153.1396202435391,-29.57480263329652,0 153.1396192934337,-29.57511531654353,0 153.139549239071,-29.57542200763332,0 153.1394126936733,-29.57571126346445,0 153.1392147514543,-29.57597229137639,0 153.1389627976149,-29.57619535186479,0 153.1386662328301,-29.57637212201105,0 153.1383361225008,-29.5764960060607,0 153.1379847838569,-29.57656238155668,0 153.0914689716595,-29.58131597490879,0 153.0644937662878,-29.59293641414113,0 153.0604138359223,-29.62971556243492,0 153.0603509891574,-29.63000422965138,0 153.0602291542299,-29.6302782690268,0 153.0600523437978,-29.63052865398473,0 153.0598263814768,-29.63074713703739,0 153.0185632671092,-29.66398774443393,0 153.0182671593991,-29.66418233446353,0 153.017932525101,-29.66432203893134,0 153.0175726544092,-29.66440130933945,0 153.0172018399404,-29.66441699737706,0 153.0168348090166,-29.66436847997592,0 153.0164861386705,-29.66425768405973,0 153.0161696766247,-29.66408901000348,0 153.0158979912553,-29.66386915684501,0 152.9823564306221,-29.63070098313985,0 152.9821405113308,-29.63043869053549,0 152.9819887008014,-29.63014439564244,0 152.9819070249431,-29.62982978121541,0 152.9818987253864,-29.62950733653085,0 
							</coordinates>
						</LinearRing>
					</innerBoundaryIs>
				</Polygon>
			</MultiGeometry>
		</Placemark>
	</Folder>
</Document>
</kml>
